start=new Date('2023-05-12T00:00:00.000Z').valueOf();
sats=[{"EPOCH":"2023-05-11T02:58:16.998240","BSTAR":"0.00115810000000","MEAN_MOTION_DOT":"0.00017022","APOAPSIS":"547.797","REF_FRAME":"TEME","MEAN_MOTION":"15.06425540","TLE_LINE2":"2 48654  53.0536  81.4713 0000956 120.1559 239.9525 15.06425540107924","SITE":"AFETR","PERIAPSIS":"546.473","MEAN_MOTION_DDOT":"0.0000000000000","CLASSIFICATION_TYPE":"U","MEAN_ELEMENT_THEORY":"SGP4","PERIOD":"95.591","LAUNCH_DATE":"2021-05-26","ELEMENT_SET_NO":"999","NORAD_CAT_ID":"48654","OBJECT_NAME":"STARLINK-2651","ARG_OF_PERICENTER":"120.1559","TLE_LINE1":"1 48654U 21044S   23131.12380785  .00017022  00000-0  11581-2 0  9992","CENTER_NAME":"EARTH","TIME_SYSTEM":"UTC","DECAY_DATE":null,"MEAN_ANOMALY":"239.9525","RCS_SIZE":"LARGE","GP_ID":"231601340","FILE":"3905210","COUNTRY_CODE":"US","INCLINATION":"53.0536","RA_OF_ASC_NODE":"81.4713","EPHEMERIS_TYPE":"0","SEMIMAJOR_AXIS":"6925.270","OBJECT_TYPE":"PAYLOAD","REV_AT_EPOCH":"10792","OBJECT_ID":"2021-044S","ECCENTRICITY":"0.00009560"},{"EPOCH":"2023-05-11T04:28:30.175104","MEAN_MOTION_DOT":"0.00020917","BSTAR":"0.00141740000000","APOAPSIS":"547.810","REF_FRAME":"TEME","TLE_LINE2":"2 48655  53.0542  81.1905 0001046  98.1533 261.9575 15.06441850107932","MEAN_MOTION":"15.06441850","CLASSIFICATION_TYPE":"U","MEAN_MOTION_DDOT":"0.0000000000000","PERIAPSIS":"546.361","SITE":"AFETR","PERIOD":"95.589","LAUNCH_DATE":"2021-05-26","MEAN_ELEMENT_THEORY":"SGP4","ELEMENT_SET_NO":"999","NORAD_CAT_ID":"48655","ARG_OF_PERICENTER":"98.1533","OBJECT_NAME":"STARLINK-2657","TLE_LINE1":"1 48655U 21044T   23131.18646036  .00020917  00000-0  14174-2 0  9991","CENTER_NAME":"EARTH","TIME_SYSTEM":"UTC","FILE":"3905210","GP_ID":"231601592","RCS_SIZE":"LARGE","DECAY_DATE":null,"MEAN_ANOMALY":"261.9575","OBJECT_TYPE":"PAYLOAD","EPHEMERIS_TYPE":"0","RA_OF_ASC_NODE":"81.1905","SEMIMAJOR_AXIS":"6925.220","INCLINATION":"53.0542","COUNTRY_CODE":"US","OBJECT_ID":"2021-044T","ECCENTRICITY":"0.00010460","REV_AT_EPOCH":"10793"},{"TLE_LINE1":"1 48656U 21044U   23131.18278297  .00021367  00000-0  14478-2 0  9999","OBJECT_NAME":"STARLINK-2701","ARG_OF_PERICENTER":"87.7070","TIME_SYSTEM":"UTC","CENTER_NAME":"EARTH","INCLINATION":"53.0543","COUNTRY_CODE":"US","OBJECT_TYPE":"PAYLOAD","EPHEMERIS_TYPE":"0","SEMIMAJOR_AXIS":"6925.253","RA_OF_ASC_NODE":"81.2050","RCS_SIZE":"LARGE","MEAN_ANOMALY":"272.4077","DECAY_DATE":null,"FILE":"3905356","GP_ID":"231609681","REV_AT_EPOCH":"10877","ECCENTRICITY":"0.00013790","OBJECT_ID":"2021-044U","MEAN_MOTION_DOT":"0.00021367","BSTAR":"0.00144780000000","EPOCH":"2023-05-11T04:23:12.448608","MEAN_MOTION":"15.06431053","TLE_LINE2":"2 48656  53.0543  81.2050 0001379  87.7070 272.4077 15.06431053108776","REF_FRAME":"TEME","APOAPSIS":"548.073","MEAN_ELEMENT_THEORY":"SGP4","PERIOD":"95.590","LAUNCH_DATE":"2021-05-26","MEAN_MOTION_DDOT":"0.0000000000000","PERIAPSIS":"546.163","SITE":"AFETR","CLASSIFICATION_TYPE":"U","NORAD_CAT_ID":"48656","ELEMENT_SET_NO":"999"},{"TLE_LINE2":"2 48657  53.0539  81.2259 0001101 100.1258 259.9855 15.06427318107934","MEAN_MOTION":"15.06427318","APOAPSIS":"547.892","REF_FRAME":"TEME","BSTAR":"0.00155650000000","MEAN_MOTION_DOT":"0.00022996","EPOCH":"2023-05-11T04:17:53.919456","NORAD_CAT_ID":"48657","ELEMENT_SET_NO":"999","MEAN_ELEMENT_THEORY":"SGP4","LAUNCH_DATE":"2021-05-26","PERIOD":"95.590","SITE":"AFETR","PERIAPSIS":"546.367","MEAN_MOTION_DDOT":"0.0000000000000","CLASSIFICATION_TYPE":"U","TIME_SYSTEM":"UTC","CENTER_NAME":"EARTH","TLE_LINE1":"1 48657U 21044V   23131.17909629  .00022996  00000-0  15565-2 0  9996","OBJECT_NAME":"STARLINK-2734","ARG_OF_PERICENTER":"100.1258","REV_AT_EPOCH":"10793","ECCENTRICITY":"0.00011010","OBJECT_ID":"2021-044V","COUNTRY_CODE":"US","INCLINATION":"53.0539","SEMIMAJOR_AXIS":"6925.265","EPHEMERIS_TYPE":"0","RA_OF_ASC_NODE":"81.2259","OBJECT_TYPE":"PAYLOAD","DECAY_DATE":null,"MEAN_ANOMALY":"259.9855","RCS_SIZE":"LARGE","GP_ID":"231600591","FILE":"3905210"},{"ECCENTRICITY":"0.00011880","OBJECT_ID":"2021-044W","REV_AT_EPOCH":"10793","RA_OF_ASC_NODE":"81.2450","EPHEMERIS_TYPE":"0","SEMIMAJOR_AXIS":"6925.271","OBJECT_TYPE":"PAYLOAD","COUNTRY_CODE":"US","INCLINATION":"53.0548","GP_ID":"231600841","FILE":"3905210","DECAY_DATE":null,"MEAN_ANOMALY":"252.8765","RCS_SIZE":"LARGE","TIME_SYSTEM":"UTC","CENTER_NAME":"EARTH","TLE_LINE1":"1 48658U 21044W   23131.17540879  .00015421  00000-0  10512-2 0  9997","ARG_OF_PERICENTER":"107.2354","OBJECT_NAME":"STARLINK-2647","NORAD_CAT_ID":"48658","ELEMENT_SET_NO":"999","PERIOD":"95.591","LAUNCH_DATE":"2021-05-26","MEAN_ELEMENT_THEORY":"SGP4","CLASSIFICATION_TYPE":"U","SITE":"AFETR","PERIAPSIS":"546.314","MEAN_MOTION_DDOT":"0.0000000000000","MEAN_MOTION":"15.06425148","TLE_LINE2":"2 48658  53.0548  81.2450 0001188 107.2354 252.8765 15.06425148107939","APOAPSIS":"547.959","REF_FRAME":"TEME","BSTAR":"0.00105120000000","MEAN_MOTION_DOT":"0.00015421","EPOCH":"2023-05-11T04:12:35.319456"},{"CENTER_NAME":"EARTH","TIME_SYSTEM":"UTC","ARG_OF_PERICENTER":"91.6953","OBJECT_NAME":"STARLINK-2717","TLE_LINE1":"1 48659U 21044X   23131.17172260  .00017288  00000-0  11757-2 0  9998","OBJECT_ID":"2021-044X","ECCENTRICITY":"0.00010750","REV_AT_EPOCH":"10793","FILE":"3905210","GP_ID":"231602092","RCS_SIZE":"LARGE","DECAY_DATE":null,"MEAN_ANOMALY":"268.4159","OBJECT_TYPE":"PAYLOAD","EPHEMERIS_TYPE":"0","SEMIMAJOR_AXIS":"6925.258","RA_OF_ASC_NODE":"81.2563","INCLINATION":"53.0544","COUNTRY_CODE":"US","APOAPSIS":"547.867","REF_FRAME":"TEME","MEAN_MOTION":"15.06429673","TLE_LINE2":"2 48659  53.0544  81.2563 0001075  91.6953 268.4159 15.06429673107934","EPOCH":"2023-05-11T04:07:16.832640","MEAN_MOTION_DOT":"0.00017288","BSTAR":"0.00117570000000","ELEMENT_SET_NO":"999","NORAD_CAT_ID":"48659","CLASSIFICATION_TYPE":"U","MEAN_MOTION_DDOT":"0.0000000000000","SITE":"AFETR","PERIAPSIS":"546.378","PERIOD":"95.590","LAUNCH_DATE":"2021-05-26","MEAN_ELEMENT_THEORY":"SGP4"},{"TIME_SYSTEM":"UTC","CENTER_NAME":"EARTH","TLE_LINE1":"1 48660U 21044Y   23131.16802474  .00019596  00000-0  13294-2 0  9998","OBJECT_NAME":"STARLINK-2688","ARG_OF_PERICENTER":"119.6746","REV_AT_EPOCH":"10793","ECCENTRICITY":"0.00012480","OBJECT_ID":"2021-044Y","COUNTRY_CODE":"US","INCLINATION":"53.0535","RA_OF_ASC_NODE":"81.2741","EPHEMERIS_TYPE":"0","SEMIMAJOR_AXIS":"6925.227","OBJECT_TYPE":"PAYLOAD","DECAY_DATE":null,"MEAN_ANOMALY":"240.4367","RCS_SIZE":"LARGE","GP_ID":"231601842","FILE":"3905210","TLE_LINE2":"2 48660  53.0535  81.2741 0001248 119.6746 240.4367 15.06439634107936","MEAN_MOTION":"15.06439634","APOAPSIS":"547.956","REF_FRAME":"TEME","BSTAR":"0.00132940000000","MEAN_MOTION_DOT":"0.00019596","EPOCH":"2023-05-11T04:01:57.337536","NORAD_CAT_ID":"48660","ELEMENT_SET_NO":"999","MEAN_ELEMENT_THEORY":"SGP4","PERIOD":"95.590","LAUNCH_DATE":"2021-05-26","PERIAPSIS":"546.228","SITE":"AFETR","MEAN_MOTION_DDOT":"0.0000000000000","CLASSIFICATION_TYPE":"U"},{"MEAN_MOTION":"15.06443039","TLE_LINE2":"2 48661  53.0539  71.5693 0001162  80.6015 279.5106 15.06443039108063","REF_FRAME":"TEME","APOAPSIS":"547.886","BSTAR":"0.00224310000000","MEAN_MOTION_DOT":"0.00033327","EPOCH":"2023-05-11T02:27:46.177920","NORAD_CAT_ID":"48661","ELEMENT_SET_NO":"999","MEAN_ELEMENT_THEORY":"SGP4","LAUNCH_DATE":"2021-05-26","PERIOD":"95.589","PERIAPSIS":"546.277","SITE":"AFETR","MEAN_MOTION_DDOT":"0.0000000000000","CLASSIFICATION_TYPE":"U","TIME_SYSTEM":"UTC","CENTER_NAME":"EARTH","TLE_LINE1":"1 48661U 21044Z   23131.10261780  .00033327  00000-0  22431-2 0  9993","OBJECT_NAME":"STARLINK-2708","ARG_OF_PERICENTER":"80.6015","REV_AT_EPOCH":"10806","ECCENTRICITY":"0.00011620","OBJECT_ID":"2021-044Z","COUNTRY_CODE":"US","INCLINATION":"53.0539","RA_OF_ASC_NODE":"71.5693","SEMIMAJOR_AXIS":"6925.217","EPHEMERIS_TYPE":"0","OBJECT_TYPE":"PAYLOAD","MEAN_ANOMALY":"279.5106","DECAY_DATE":null,"RCS_SIZE":"LARGE","GP_ID":"231601091","FILE":"3905210"},{"EPHEMERIS_TYPE":"0","RA_OF_ASC_NODE":"71.5842","SEMIMAJOR_AXIS":"6925.224","OBJECT_TYPE":"PAYLOAD","COUNTRY_CODE":"US","INCLINATION":"53.0539","GP_ID":"231601341","FILE":"3905210","MEAN_ANOMALY":"277.2061","DECAY_DATE":null,"RCS_SIZE":"LARGE","ECCENTRICITY":"0.00011530","OBJECT_ID":"2021-044AA","REV_AT_EPOCH":"10806","TLE_LINE1":"1 48662U 21044AA  23131.09892736  .00028739  00000-0  19383-2 0  9996","ARG_OF_PERICENTER":"82.9059","OBJECT_NAME":"STARLINK-2726","TIME_SYSTEM":"UTC","CENTER_NAME":"EARTH","PERIOD":"95.590","LAUNCH_DATE":"2021-05-26","MEAN_ELEMENT_THEORY":"SGP4","CLASSIFICATION_TYPE":"U","SITE":"AFETR","PERIAPSIS":"546.291","MEAN_MOTION_DDOT":"0.0000000000000","NORAD_CAT_ID":"48662","ELEMENT_SET_NO":"999","BSTAR":"0.00193830000000","MEAN_MOTION_DOT":"0.00028739","EPOCH":"2023-05-11T02:22:27.323904","MEAN_MOTION":"15.06440561","TLE_LINE2":"2 48662  53.0539  71.5842 0001153  82.9059 277.2061 15.06440561108065","REF_FRAME":"TEME","APOAPSIS":"547.888"},{"OBJECT_ID":"2021-044AB","ECCENTRICITY":"0.00010680","REV_AT_EPOCH":"10806","SEMIMAJOR_AXIS":"6925.251","EPHEMERIS_TYPE":"0","RA_OF_ASC_NODE":"71.6006","OBJECT_TYPE":"PAYLOAD","COUNTRY_CODE":"US","INCLINATION":"53.0527","GP_ID":"231601593","FILE":"3905210","DECAY_DATE":null,"MEAN_ANOMALY":"269.0912","RCS_SIZE":"LARGE","TIME_SYSTEM":"UTC","CENTER_NAME":"EARTH","TLE_LINE1":"1 48663U 21044AB  23131.09524183  .00024265  00000-0  16409-2 0  9991","ARG_OF_PERICENTER":"91.0199","OBJECT_NAME":"STARLINK-2667","NORAD_CAT_ID":"48663","ELEMENT_SET_NO":"999","PERIOD":"95.590","LAUNCH_DATE":"2021-05-26","MEAN_ELEMENT_THEORY":"SGP4","CLASSIFICATION_TYPE":"U","PERIAPSIS":"546.377","SITE":"AFETR","MEAN_MOTION_DDOT":"0.0000000000000","MEAN_MOTION":"15.06431684","TLE_LINE2":"2 48663  53.0527  71.6006 0001068  91.0199 269.0912 15.06431684108067","REF_FRAME":"TEME","APOAPSIS":"547.856","BSTAR":"0.00164090000000","MEAN_MOTION_DOT":"0.00024265","EPOCH":"2023-05-11T02:17:08.894112"}];
